{
  "norad_id": 68817,
  "name": "STARLINK-37444",
  "history": [
    {
      "epoch": "2026-04-27T12:54:19.090944Z",
      "apogee_km": 265.0918455281344,
      "perigee_km": 262.1271027370103,
      "latitude_deg": 2.1781399145955888e-05,
      "longitude_deg": -86.41605239206783,
      "height_km": 268.1303302255328,
      "semi_major_axis_km": 6641.746474132572,
      "eccentricity": 0.00022319,
      "inclination_deg": 97.2854,
      "raan_deg": 322.6896,
      "arg_perigee_deg": 152.5457,
      "mean_anomaly_deg": 207.5942,
      "mean_motion_rev_day": 16.03907511
    }
  ]
}