STARLINK-37444          
1 68817U 26089R   26117.53772096 -.00483751  88740-4 -76010-3 0  9999
2 68817  97.2854 322.6896 0002231 152.5457 207.5942 16.03907511   710
